[{"OBJECT_NAME":"SHIJIAN-16 (SJ-16)","OBJECT_ID":"2013-057A","EPOCH":"2026-03-09T23:08:29.723424","MEAN_MOTION":14.92346393,"ECCENTRICITY":0.00154796,"INCLINATION":74.9735,"RA_OF_ASC_NODE":184.568,"ARG_OF_PERICENTER":111.8205,"MEAN_ANOMALY":248.4632,"EPHEMERIS_TYPE":0,"CLASSIFICATION_TYPE":"U","NORAD_CAT_ID":39358,"ELEMENT_SET_NO":999,"REV_AT_EPOCH":67154,"BSTAR":5.6936716e-5,"MEAN_MOTION_DOT":5.54e-6,"MEAN_MOTION_DDOT":0},{"OBJECT_NAME":"OBJECT D","OBJECT_ID":"2025-274D","EPOCH":"2026-03-09T17:23:54.815136","MEAN_MOTION":14.92403662,"ECCENTRICITY":0.0012011,"INCLINATION":97.7437,"RA_OF_ASC_NODE":359.4086,"ARG_OF_PERICENTER":332.7011,"MEAN_ANOMALY":27.3575,"EPHEMERIS_TYPE":0,"CLASSIFICATION_TYPE":"U","NORAD_CAT_ID":66653,"ELEMENT_SET_NO":999,"REV_AT_EPOCH":1537,"BSTAR":0.00025671905,"MEAN_MOTION_DOT":2.576e-5,"MEAN_MOTION_DDOT":0}]
